ONEWEB-0236             
1 48797U 21045AG  25256.17504990  .00000006  00000+0 -17172-4 0  9990
2 48797  87.9032 314.4954 0001989  99.5336 260.6019 13.15548969207833
ONEWEB-0248             
1 48798U 21045AH  25256.11165876 -.00000011  00000+0 -63594-4 0  9997
2 48798  87.9040 314.4629 0001385 113.4038 246.7238 13.15549566207985
ONEWEB-0225             
1 48799U 21045AJ  25255.90567858 -.00000030  00000+0 -11301-3 0  9999
2 48799  87.9030 314.5350 0001245  94.4970 265.6302 13.15549255207960
ONEWEB-0215             
1 48800U 21045AK  25256.25586883 -.00001045  00000+0 -28097-2 0  9996
2 48800  87.9045 314.4172 0001138 105.4343 254.6913 13.15539300207885
ONEWEB-0216             
1 48801U 21045AL  25256.11325676 -.00000055  00000+0 -18110-3 0  9999
2 48801  87.9028 314.4864 0001824  91.3224 268.8115 13.15546658207872
ONEWEB-0239             
1 48802U 21045AM  25255.88982927 -.00000101  00000+0 -30246-3 0  9997
2 48802  87.9031 314.5450 0001249 118.5835 241.5421 13.15549562207886
ONEWEB-0249             
1 48967U 21060A   25256.04318587  .00000001  00000+0 -31998-4 0  9994
2 48967  87.8981 284.0169 0001896  96.4291 263.7056 13.16594952203146
ONEWEB-0250             
1 48968U 21060B   25256.03695837  .00000064  00000+0  11498-3 0  9990
2 48968  87.8982 282.6820 0001987 123.0065 237.1262 13.25813440203491
ONEWEB-0252             
1 48970U 21060D   25255.84685409  .00000100  00000+0  22721-3 0  9997
2 48970  87.8986 284.0495 0002001  84.2381 275.8978 13.16595180203164
ONEWEB-0253             
1 48971U 21060E   25256.06376009  .00000127  00000+0  29832-3 0  9995
2 48971  87.8983 284.0097 0001648  91.9767 268.1552 13.16595037203129
ONEWEB-0254             
1 48972U 21060F   25256.07326880  .00000125  00000+0  29326-3 0  9995
2 48972  87.8987 283.9947 0001528 100.1288 260.0016 13.16594355203122
ONEWEB-0255             
1 48973U 21060G   25256.03525929 -.00000007  00000+0 -51735-4 0  9998
2 48973  87.8976 284.0287 0001631  95.3417 264.7900 13.16595548203199
ONEWEB-0256             
1 48974U 21060H   25256.06138511  .00000037  00000+0  63204-4 0  9994
2 48974  87.8973 284.0340 0001964  89.5319 270.6037 13.16594985203160
ONEWEB-0257             
1 48975U 21060J   25256.01785217  .00000095  00000+0  21360-3 0  9991
2 48975  87.8986 284.0122 0001699  90.6571 269.4755 13.16595809203115
ONEWEB-0258             
1 48976U 21060K   25256.09542160 -.00001795  00000+0 -47290-2 0  9997
2 48976  87.8977 284.0197 0001957  95.1011 265.0343 13.16604410203130
ONEWEB-0259             
1 48977U 21060L   25256.08909915  .00000005  00000+0 -20667-4 0  9995
2 48977  87.8983 284.0072 0001723  95.7523 264.3804 13.16595040203160
