[{"OBJECT_NAME":"ONEWEB-0236","OBJECT_ID":"2021-045AG","EPOCH":"2025-09-13T04:12:04.311360","MEAN_MOTION":13.15548969,"ECCENTRICITY":0.00019892,"INCLINATION":87.9032,"RA_OF_ASC_NODE":314.4954,"ARG_OF_PERICENTER":99.5336,"MEAN_ANOMALY":260.6019,"EPHEMERIS_TYPE":0,"CLASSIFICATION_TYPE":"U","NORAD_CAT_ID":48797,"ELEMENT_SET_NO":999,"REV_AT_EPOCH":20783,"BSTAR":-1.7172098e-5,"MEAN_MOTION_DOT":6.0e-8,"MEAN_MOTION_DDOT":0},{"OBJECT_NAME":"ONEWEB-0248","OBJECT_ID":"2021-045AH","EPOCH":"2025-09-13T02:40:47.316864","MEAN_MOTION":13.15549566,"ECCENTRICITY":0.00013856,"INCLINATION":87.904,"RA_OF_ASC_NODE":314.4629,"ARG_OF_PERICENTER":113.4038,"MEAN_ANOMALY":246.7238,"EPHEMERIS_TYPE":0,"CLASSIFICATION_TYPE":"U","NORAD_CAT_ID":48798,"ELEMENT_SET_NO":999,"REV_AT_EPOCH":20798,"BSTAR":-6.3593673e-5,"MEAN_MOTION_DOT":-1.1e-7,"MEAN_MOTION_DDOT":0},{"OBJECT_NAME":"ONEWEB-0225","OBJECT_ID":"2021-045AJ","EPOCH":"2025-09-12T21:44:10.629312","MEAN_MOTION":13.15549255,"ECCENTRICITY":0.00012456,"INCLINATION":87.903,"RA_OF_ASC_NODE":314.535,"ARG_OF_PERICENTER":94.497,"MEAN_ANOMALY":265.6302,"EPHEMERIS_TYPE":0,"CLASSIFICATION_TYPE":"U","NORAD_CAT_ID":48799,"ELEMENT_SET_NO":999,"REV_AT_EPOCH":20796,"BSTAR":-0.00011300721,"MEAN_MOTION_DOT":-3.0e-7,"MEAN_MOTION_DDOT":0},{"OBJECT_NAME":"ONEWEB-0215","OBJECT_ID":"2021-045AK","EPOCH":"2025-09-13T06:08:27.066912","MEAN_MOTION":13.155393,"ECCENTRICITY":0.00011388,"INCLINATION":87.9045,"RA_OF_ASC_NODE":314.4172,"ARG_OF_PERICENTER":105.4343,"MEAN_ANOMALY":254.6913,"EPHEMERIS_TYPE":0,"CLASSIFICATION_TYPE":"U","NORAD_CAT_ID":48800,"ELEMENT_SET_NO":999,"REV_AT_EPOCH":20788,"BSTAR":-0.0028096811,"MEAN_MOTION_DOT":-1.045e-5,"MEAN_MOTION_DDOT":0},{"OBJECT_NAME":"ONEWEB-0216","OBJECT_ID":"2021-045AL","EPOCH":"2025-09-13T02:43:05.384064","MEAN_MOTION":13.15546658,"ECCENTRICITY":0.00018247,"INCLINATION":87.9028,"RA_OF_ASC_NODE":314.4864,"ARG_OF_PERICENTER":91.3224,"MEAN_ANOMALY":268.8115,"EPHEMERIS_TYPE":0,"CLASSIFICATION_TYPE":"U","NORAD_CAT_ID":48801,"ELEMENT_SET_NO":999,"REV_AT_EPOCH":20787,"BSTAR":-0.00018109788,"MEAN_MOTION_DOT":-5.5e-7,"MEAN_MOTION_DDOT":0},{"OBJECT_NAME":"ONEWEB-0239","OBJECT_ID":"2021-045AM","EPOCH":"2025-09-12T21:21:21.248928","MEAN_MOTION":13.15549562,"ECCENTRICITY":0.00012494,"INCLINATION":87.9031,"RA_OF_ASC_NODE":314.545,"ARG_OF_PERICENTER":118.5835,"MEAN_ANOMALY":241.5421,"EPHEMERIS_TYPE":0,"CLASSIFICATION_TYPE":"U","NORAD_CAT_ID":48802,"ELEMENT_SET_NO":999,"REV_AT_EPOCH":20788,"BSTAR":-0.00030245983,"MEAN_MOTION_DOT":-1.01e-6,"MEAN_MOTION_DDOT":0},{"OBJECT_NAME":"ONEWEB-0249","OBJECT_ID":"2021-060A","EPOCH":"2025-09-13T01:02:11.259168","MEAN_MOTION":13.16594952,"ECCENTRICITY":0.00018968,"INCLINATION":87.8981,"RA_OF_ASC_NODE":284.0169,"ARG_OF_PERICENTER":96.4291,"MEAN_ANOMALY":263.7056,"EPHEMERIS_TYPE":0,"CLASSIFICATION_TYPE":"U","NORAD_CAT_ID":48967,"ELEMENT_SET_NO":999,"REV_AT_EPOCH":20314,"BSTAR":-3.1997961e-5,"MEAN_MOTION_DOT":1.0e-8,"MEAN_MOTION_DDOT":0},{"OBJECT_NAME":"ONEWEB-0250","OBJECT_ID":"2021-060B","EPOCH":"2025-09-13T00:53:13.203168","MEAN_MOTION":13.2581344,"ECCENTRICITY":0.00019872,"INCLINATION":87.8982,"RA_OF_ASC_NODE":282.682,"ARG_OF_PERICENTER":123.0065,"MEAN_ANOMALY":237.1262,"EPHEMERIS_TYPE":0,"CLASSIFICATION_TYPE":"U","NORAD_CAT_ID":48968,"ELEMENT_SET_NO":999,"REV_AT_EPOCH":20349,"BSTAR":0.00011497596,"MEAN_MOTION_DOT":6.4e-7,"MEAN_MOTION_DDOT":0},{"OBJECT_NAME":"ONEWEB-0252","OBJECT_ID":"2021-060D","EPOCH":"2025-09-12T20:19:28.193376","MEAN_MOTION":13.1659518,"ECCENTRICITY":0.00020016,"INCLINATION":87.8986,"RA_OF_ASC_NODE":284.0495,"ARG_OF_PERICENTER":84.2381,"MEAN_ANOMALY":275.8978,"EPHEMERIS_TYPE":0,"CLASSIFICATION_TYPE":"U","NORAD_CAT_ID":48970,"ELEMENT_SET_NO":999,"REV_AT_EPOCH":20316,"BSTAR":0.00022720532,"MEAN_MOTION_DOT":1.0e-6,"MEAN_MOTION_DDOT":0},{"OBJECT_NAME":"ONEWEB-0253","OBJECT_ID":"2021-060E","EPOCH":"2025-09-13T01:31:48.871776","MEAN_MOTION":13.16595037,"ECCENTRICITY":0.00016483,"INCLINATION":87.8983,"RA_OF_ASC_NODE":284.0097,"ARG_OF_PERICENTER":91.9767,"MEAN_ANOMALY":268.1552,"EPHEMERIS_TYPE":0,"CLASSIFICATION_TYPE":"U","NORAD_CAT_ID":48971,"ELEMENT_SET_NO":999,"REV_AT_EPOCH":20312,"BSTAR":0.00029831995,"MEAN_MOTION_DOT":1.27e-6,"MEAN_MOTION_DDOT":0},{"OBJECT_NAME":"ONEWEB-0254","OBJECT_ID":"2021-060F","EPOCH":"2025-09-13T01:45:30.424320","MEAN_MOTION":13.16594355,"ECCENTRICITY":0.00015288,"INCLINATION":87.8987,"RA_OF_ASC_NODE":283.9947,"ARG_OF_PERICENTER":100.1288,"MEAN_ANOMALY":260.0016,"EPHEMERIS_TYPE":0,"CLASSIFICATION_TYPE":"U","NORAD_CAT_ID":48972,"ELEMENT_SET_NO":999,"REV_AT_EPOCH":20312,"BSTAR":0.00029326277,"MEAN_MOTION_DOT":1.25e-6,"MEAN_MOTION_DDOT":0},{"OBJECT_NAME":"ONEWEB-0255","OBJECT_ID":"2021-060G","EPOCH":"2025-09-13T00:50:46.402656","MEAN_MOTION":13.16595548,"ECCENTRICITY":0.00016313,"INCLINATION":87.8976,"RA_OF_ASC_NODE":284.0287,"ARG_OF_PERICENTER":95.3417,"MEAN_ANOMALY":264.79,"EPHEMERIS_TYPE":0,"CLASSIFICATION_TYPE":"U","NORAD_CAT_ID":48973,"ELEMENT_SET_NO":999,"REV_AT_EPOCH":20319,"BSTAR":-5.1734628e-5,"MEAN_MOTION_DOT":-7.0e-8,"MEAN_MOTION_DDOT":0},{"OBJECT_NAME":"ONEWEB-0256","OBJECT_ID":"2021-060H","EPOCH":"2025-09-13T01:28:23.673504","MEAN_MOTION":13.16594985,"ECCENTRICITY":0.00019642,"INCLINATION":87.8973,"RA_OF_ASC_NODE":284.034,"ARG_OF_PERICENTER":89.5319,"MEAN_ANOMALY":270.6037,"EPHEMERIS_TYPE":0,"CLASSIFICATION_TYPE":"U","NORAD_CAT_ID":48974,"ELEMENT_SET_NO":999,"REV_AT_EPOCH":20316,"BSTAR":6.3204186e-5,"MEAN_MOTION_DOT":3.7e-7,"MEAN_MOTION_DDOT":0},{"OBJECT_NAME":"ONEWEB-0257","OBJECT_ID":"2021-060J","EPOCH":"2025-09-13T00:25:42.427488","MEAN_MOTION":13.16595809,"ECCENTRICITY":0.00016996,"INCLINATION":87.8986,"RA_OF_ASC_NODE":284.0122,"ARG_OF_PERICENTER":90.6571,"MEAN_ANOMALY":269.4755,"EPHEMERIS_TYPE":0,"CLASSIFICATION_TYPE":"U","NORAD_CAT_ID":48975,"ELEMENT_SET_NO":999,"REV_AT_EPOCH":20311,"BSTAR":0.0002136041,"MEAN_MOTION_DOT":9.5e-7,"MEAN_MOTION_DDOT":0},{"OBJECT_NAME":"ONEWEB-0258","OBJECT_ID":"2021-060K","EPOCH":"2025-09-13T02:17:24.426240","MEAN_MOTION":13.1660441,"ECCENTRICITY":0.00019572,"INCLINATION":87.8977,"RA_OF_ASC_NODE":284.0197,"ARG_OF_PERICENTER":95.1011,"MEAN_ANOMALY":265.0343,"EPHEMERIS_TYPE":0,"CLASSIFICATION_TYPE":"U","NORAD_CAT_ID":48976,"ELEMENT_SET_NO":999,"REV_AT_EPOCH":20313,"BSTAR":-0.0047289871,"MEAN_MOTION_DOT":-1.795e-5,"MEAN_MOTION_DDOT":0},{"OBJECT_NAME":"ONEWEB-0259","OBJECT_ID":"2021-060L","EPOCH":"2025-09-13T02:08:18.166560","MEAN_MOTION":13.1659504,"ECCENTRICITY":0.00017236,"INCLINATION":87.8983,"RA_OF_ASC_NODE":284.0072,"ARG_OF_PERICENTER":95.7523,"MEAN_ANOMALY":264.3804,"EPHEMERIS_TYPE":0,"CLASSIFICATION_TYPE":"U","NORAD_CAT_ID":48977,"ELEMENT_SET_NO":999,"REV_AT_EPOCH":20316,"BSTAR":-2.0667349e-5,"MEAN_MOTION_DOT":5.0e-8,"MEAN_MOTION_DDOT":0}]
